[{"OBJECT_NAME":"STARLINK-3532","OBJECT_ID":"2022-016P","EPOCH":"2026-03-09T23:24:04.221504","MEAN_MOTION":15.0883683,"ECCENTRICITY":0.00013734,"INCLINATION":53.2188,"RA_OF_ASC_NODE":327.8415,"ARG_OF_PERICENTER":83.1131,"MEAN_ANOMALY":277.0017,"EPHEMERIS_TYPE":0,"CLASSIFICATION_TYPE":"U","NORAD_CAT_ID":51727,"ELEMENT_SET_NO":999,"REV_AT_EPOCH":22346,"BSTAR":7.9535108e-5,"MEAN_MOTION_DOT":9.78e-6,"MEAN_MOTION_DDOT":0},{"OBJECT_NAME":"CZ-6A R\/B","OBJECT_ID":"2023-168B","EPOCH":"2026-03-09T21:13:08.722272","MEAN_MOTION":15.16100791,"ECCENTRICITY":0.00607667,"INCLINATION":97.7542,"RA_OF_ASC_NODE":104.7688,"ARG_OF_PERICENTER":339.2379,"MEAN_ANOMALY":20.6386,"EPHEMERIS_TYPE":0,"CLASSIFICATION_TYPE":"U","NORAD_CAT_ID":58200,"ELEMENT_SET_NO":999,"REV_AT_EPOCH":12979,"BSTAR":0.00029693841,"MEAN_MOTION_DOT":5.919e-5,"MEAN_MOTION_DDOT":0}]
